OBJECT_NAME,OBJECT_ID,EPOCH,MEAN_MOTION,ECCENTRICITY,INCLINATION,RA_OF_ASC_NODE,ARG_OF_PERICENTER,MEAN_ANOMALY,EPHEMERIS_TYPE,CLASSIFICATION_TYPE,NORAD_CAT_ID,ELEMENT_SET_NO,REV_AT_EPOCH,BSTAR,MEAN_MOTION_DOT,MEAN_MOTION_DDOT
SAUDISAT 1C (SO-50),2002-058C,2026-06-30T23:29:28.300128,14.83075137,.00749373,64.5520,86.3145,259.9000,99.3646,0,U,27607,999,26650,.12968839E-3,.954E-5,0
SAUDISAT 2,2004-025F,2026-06-30T23:20:54.175200,14.56691575,.00234795,98.5510,182.3112,253.6810,106.1805,0,U,28371,999,16775,.70125384E-4,.264E-5,0
SAUDISAT 3,2007-012B,2026-06-30T09:11:38.830848,14.71432867,.00145403,98.1461,131.7926,180.2663,179.8538,0,U,31118,999,2968,.50279682E-4,.261E-5,0
PISAT,2016-059B,2026-06-30T23:18:48.464928,14.69007442,.00295551,97.8181,181.8319,158.6922,201.5522,0,U,41784,999,52176,.18071205E-3,.1019E-4,0
FLYING LAPTOP,2017-042G,2026-06-30T23:35:54.863232,15.01232095,.00199805,97.4746,336.9901,77.4515,282.8943,0,U,42831,999,48852,.24545173E-3,.3107E-4,0
SALSAT,2020-068K,2026-06-30T11:43:12.412704,15.29983096,.0007929,97.8843,185.3641,251.0233,109.0147,0,U,46495,999,31739,.26165469E-3,.7517E-4,0
